{
  "links" : {
    "next" : "https://api.nasa.gov/neo/rest/v1/feed?start_date=2006-04-16&end_date=2006-04-16&detailed=true&api_key=t0TVs3DtDT2H8Oy2Zy8m2eVrNsAVKAexjcZXUckd",
    "prev" : "https://api.nasa.gov/neo/rest/v1/feed?start_date=2006-04-14&end_date=2006-04-14&detailed=true&api_key=t0TVs3DtDT2H8Oy2Zy8m2eVrNsAVKAexjcZXUckd",
    "self" : "https://api.nasa.gov/neo/rest/v1/feed?start_date=2006-04-15&end_date=2006-04-15&detailed=true&api_key=t0TVs3DtDT2H8Oy2Zy8m2eVrNsAVKAexjcZXUckd"
  },
  "element_count" : 3,
  "near_earth_objects" : {
    "2006-04-15" : [ {
      "links" : {
        "self" : "https://api.nasa.gov/neo/rest/v1/neo/2144901?api_key=t0TVs3DtDT2H8Oy2Zy8m2eVrNsAVKAexjcZXUckd"
      },
      "neo_reference_id" : "2144901",
      "name" : "144901 (2004 WG1)",
      "nasa_jpl_url" : "http://ssd.jpl.nasa.gov/sbdb.cgi?sstr=2144901",
      "absolute_magnitude_h" : 17.4,
      "estimated_diameter" : {
        "kilometers" : {
          "estimated_diameter_min" : 0.8801465209,
          "estimated_diameter_max" : 1.9680674509
        },
        "meters" : {
          "estimated_diameter_min" : 880.1465209007,
          "estimated_diameter_max" : 1968.067450894
        },
        "miles" : {
          "estimated_diameter_min" : 0.5468975238,
          "estimated_diameter_max" : 1.22290004
        },
        "feet" : {
          "estimated_diameter_min" : 2887.6199116319,
          "estimated_diameter_max" : 6456.914415591
        }
      },
      "is_potentially_hazardous_asteroid" : false,
      "close_approach_data" : [ {
        "close_approach_date" : "2006-04-15",
        "epoch_date_close_approach" : 1145084400000,
        "relative_velocity" : {
          "kilometers_per_second" : "17.0669840728",
          "kilometers_per_hour" : "61441.1426621477",
          "miles_per_hour" : "38177.1366724884"
        },
        "miss_distance" : {
          "astronomical" : "0.0826279332",
          "lunar" : "32.1422653198",
          "kilometers" : "12360962",
          "miles" : "7680746"
        },
        "orbiting_body" : "Earth"
      } ],
      "orbital_data" : {
        "orbit_id" : "119",
        "orbit_determination_date" : "2017-04-06 09:27:19",
        "orbit_uncertainty" : "0",
        "minimum_orbit_intersection" : ".0545691",
        "jupiter_tisserand_invariant" : "4.106",
        "epoch_osculation" : "2458000.5",
        "eccentricity" : ".5213470247324964",
        "semi_major_axis" : "1.639950988669084",
        "inclination" : "13.04197931581824",
        "ascending_node_longitude" : "42.02173357506083",
        "orbital_period" : "767.0871900914771",
        "perihelion_distance" : ".7849674200193409",
        "perihelion_argument" : "232.4259659854996",
        "aphelion_distance" : "2.494934557318826",
        "perihelion_time" : "2457721.329013406382",
        "mean_anomaly" : "131.0171209634165",
        "mean_motion" : ".4693077979272071",
        "equinox" : "J2000"
      }
    }, {
      "links" : {
        "self" : "https://api.nasa.gov/neo/rest/v1/neo/3328630?api_key=t0TVs3DtDT2H8Oy2Zy8m2eVrNsAVKAexjcZXUckd"
      },
      "neo_reference_id" : "3328630",
      "name" : "(2006 FH)",
      "nasa_jpl_url" : "http://ssd.jpl.nasa.gov/sbdb.cgi?sstr=3328630",
      "absolute_magnitude_h" : 24.3,
      "estimated_diameter" : {
        "kilometers" : {
          "estimated_diameter_min" : 0.0366906138,
          "estimated_diameter_max" : 0.0820427065
        },
        "meters" : {
          "estimated_diameter_min" : 36.6906137531,
          "estimated_diameter_max" : 82.0427064882
        },
        "miles" : {
          "estimated_diameter_min" : 0.0227984834,
          "estimated_diameter_max" : 0.0509789586
        },
        "feet" : {
          "estimated_diameter_min" : 120.3760332259,
          "estimated_diameter_max" : 269.1689931548
        }
      },
      "is_potentially_hazardous_asteroid" : false,
      "close_approach_data" : [ {
        "close_approach_date" : "2006-04-15",
        "epoch_date_close_approach" : 1145084400000,
        "relative_velocity" : {
          "kilometers_per_second" : "6.6830432299",
          "kilometers_per_hour" : "24058.9556275005",
          "miles_per_hour" : "14949.2994008767"
        },
        "miss_distance" : {
          "astronomical" : "0.0479645752",
          "lunar" : "18.6582202911",
          "kilometers" : "7175398.5",
          "miles" : "4458586"
        },
        "orbiting_body" : "Earth"
      } ],
      "orbital_data" : {
        "orbit_id" : "13",
        "orbit_determination_date" : "2017-04-06 09:14:58",
        "orbit_uncertainty" : "7",
        "minimum_orbit_intersection" : ".0444187",
        "jupiter_tisserand_invariant" : "3.574",
        "epoch_osculation" : "2458000.5",
        "eccentricity" : ".5060680989077488",
        "semi_major_axis" : "2.097046422741764",
        "inclination" : "3.481688162528422",
        "ascending_node_longitude" : "180.757242017651",
        "orbital_period" : "1109.201616494129",
        "perihelion_distance" : "1.035798126263544",
        "perihelion_argument" : "32.10309463820536",
        "aphelion_distance" : "3.158294719219984",
        "perihelion_time" : "2458285.188636762403",
        "mean_anomaly" : "267.6020917113336",
        "mean_motion" : ".3245577671783942",
        "equinox" : "J2000"
      }
    }, {
      "links" : {
        "self" : "https://api.nasa.gov/neo/rest/v1/neo/3752035?api_key=t0TVs3DtDT2H8Oy2Zy8m2eVrNsAVKAexjcZXUckd"
      },
      "neo_reference_id" : "3752035",
      "name" : "(2016 GL222)",
      "nasa_jpl_url" : "http://ssd.jpl.nasa.gov/sbdb.cgi?sstr=3752035",
      "absolute_magnitude_h" : 25.8,
      "estimated_diameter" : {
        "kilometers" : {
          "estimated_diameter_min" : 0.0183888672,
          "estimated_diameter_max" : 0.0411187571
        },
        "meters" : {
          "estimated_diameter_min" : 18.388867207,
          "estimated_diameter_max" : 41.1187571041
        },
        "miles" : {
          "estimated_diameter_min" : 0.0114263088,
          "estimated_diameter_max" : 0.0255500032
        },
        "feet" : {
          "estimated_diameter_min" : 60.3309310875,
          "estimated_diameter_max" : 134.9040630575
        }
      },
      "is_potentially_hazardous_asteroid" : false,
      "close_approach_data" : [ {
        "close_approach_date" : "2006-04-15",
        "epoch_date_close_approach" : 1145084400000,
        "relative_velocity" : {
          "kilometers_per_second" : "14.9114734946",
          "kilometers_per_hour" : "53681.3045807004",
          "miles_per_hour" : "33355.475060158"
        },
        "miss_distance" : {
          "astronomical" : "0.4306841218",
          "lunar" : "167.5361175537",
          "kilometers" : "64429428",
          "miles" : "40034592"
        },
        "orbiting_body" : "Earth"
      } ],
      "orbital_data" : {
        "orbit_id" : "9",
        "orbit_determination_date" : "2017-04-06 08:26:27",
        "orbit_uncertainty" : "7",
        "minimum_orbit_intersection" : ".0332601",
        "jupiter_tisserand_invariant" : "5.442",
        "epoch_osculation" : "2458000.5",
        "eccentricity" : ".1368911183249411",
        "semi_major_axis" : "1.153414065620283",
        "inclination" : "3.528243919201097",
        "ascending_node_longitude" : "198.1552015925716",
        "orbital_period" : "452.4559374544025",
        "perihelion_distance" : ".9955219242858057",
        "perihelion_argument" : "303.2877186497561",
        "aphelion_distance" : "1.311306206954761",
        "perihelion_time" : "2457881.894490763240",
        "mean_anomaly" : "94.36937343658288",
        "mean_motion" : ".7956575882845609",
        "equinox" : "J2000"
      }
    } ]
  }
}